{
  "type": "FeatureCollection",
  "features": [
    {
      "type": "Feature",
      "properties": {
        "norad_id": 36585,
        "name": "GPS BIIF-1  (PRN 25)",
        "group": "gnss",
        "lat": -44.9304600018029,
        "lon": 81.37086757045097,
        "alt_km": 20523.478827346207,
        "timestamp": "2025-12-26T06:43:29.753162+00:00",
        "meta_object_name": "GPS BIIF-1  (PRN 25)",
        "meta_object_id": "2010-022A",
        "meta_epoch": "2025-12-25T02:37:13.768896",
        "meta_mean_motion": 2.005538,
        "meta_eccentricity": 0.01265811,
        "meta_inclination": 54.2983,
        "meta_ra_of_asc_node": 215.575,
        "meta_arg_of_pericenter": 65.232,
        "meta_mean_anomaly": 49.6235,
        "meta_ephemeris_type": 0,
        "meta_classification_type": "U",
        "meta_norad_cat_id": 36585,
        "meta_element_set_no": 999,
        "meta_rev_at_epoch": 11410,
        "meta_bstar": 0,
        "meta_mean_motion_dot": 7.6e-07,
        "meta_mean_motion_ddot": 0,
        "tle_line1": "1 36585U 10022A   25359.10918714  .00000076  00000+0  00000+0 0  9998",
        "tle_line2": "2 36585  54.2983 215.5750 0126581  65.2320  49.6235  2.00553800114105"
      },
      "geometry": {
        "type": "Point",
        "coordinates": [
          81.37086757045097,
          -44.9304600018029
        ]
      }
    },
    {
      "type": "Feature",
      "properties": {
        "norad_id": 36828,
        "name": "BEIDOU-2 IGSO-1 (C06)",
        "group": "gnss",
        "lat": 32.321572947199556,
        "lon": -42.58385622851063,
        "alt_km": 35732.590076506836,
        "timestamp": "2025-12-26T06:43:29.753174+00:00",
        "meta_object_name": "BEIDOU-2 IGSO-1 (C06)",
        "meta_object_id": "2010-036A",
        "meta_epoch": "2025-12-25T21:06:51.904224",
        "meta_mean_motion": 1.00272533,
        "meta_eccentricity": 0.00515074,
        "meta_inclination": 54.2892,
        "meta_ra_of_asc_node": 164.5291,
        "meta_arg_of_pericenter": 215.7944,
        "meta_mean_anomaly": 138.9488,
        "meta_ephemeris_type": 0,
        "meta_classification_type": "U",
        "meta_norad_cat_id": 36828,
        "meta_element_set_no": 999,
        "meta_rev_at_epoch": 5635,
        "meta_bstar": 0,
        "meta_mean_motion_dot": -5.2e-07,
        "meta_mean_motion_ddot": 0,
        "tle_line1": "1 36828U 10036A   25359.87976741 -.00000052  00000+0  00000+0 0  9996",
        "tle_line2": "2 36828  54.2892 164.5291 0051507 215.7944 138.9488  1.00272533 56350"
      },
      "geometry": {
        "type": "Point",
        "coordinates": [
          -42.58385622851063,
          32.321572947199556
        ]
      }
    },
    {
      "type": "Feature",
      "properties": {
        "norad_id": 37210,
        "name": "BEIDOU-2 G4 (C04)",
        "group": "gnss",
        "lat": -3.094964677045219,
        "lon": -3.8759449674762902,
        "alt_km": 35788.13143312663,
        "timestamp": "2025-12-26T06:43:29.753186+00:00",
        "meta_object_name": "BEIDOU-2 G4 (C04)",
        "meta_object_id": "2010-057A",
        "meta_epoch": "2025-12-25T19:04:40.718208",
        "meta_mean_motion": 1.0027141,
        "meta_eccentricity": 0.00104499,
        "meta_inclination": 3.2148,
        "meta_ra_of_asc_node": 69.8888,
        "meta_arg_of_pericenter": 194.0631,
        "meta_mean_anomaly": 276.8504,
        "meta_ephemeris_type": 0,
        "meta_classification_type": "U",
        "meta_norad_cat_id": 37210,
        "meta_element_set_no": 999,
        "meta_rev_at_epoch": 5555,
        "meta_bstar": 0,
        "meta_mean_motion_dot": -9.1e-07,
        "meta_mean_motion_ddot": 0,
        "tle_line1": "1 37210U 10057A   25359.79491572 -.00000091  00000+0  00000+0 0  9993",
        "tle_line2": "2 37210   3.2148  69.8888 0010449 194.0631 276.8504  1.00271410 55550"
      },
      "geometry": {
        "type": "Point",
        "coordinates": [
          -3.8759449674762902,
          -3.094964677045219
        ]
      }
    },
    {
      "type": "Feature",
      "properties": {
        "norad_id": 37256,
        "name": "BEIDOU-2 IGSO-2 (C07)",
        "group": "gnss",
        "lat": 21.78620787673914,
        "lon": -64.8406930257347,
        "alt_km": 35984.07298908065,
        "timestamp": "2025-12-26T06:43:29.753199+00:00",
        "meta_object_name": "BEIDOU-2 IGSO-2 (C07)",
        "meta_object_id": "2010-068A",
        "meta_epoch": "2025-12-25T16:47:38.629824",
        "meta_mean_motion": 1.00282453,
        "meta_eccentricity": 0.00484524,
        "meta_inclination": 47.8622,
        "meta_ra_of_asc_node": 273.9905,
        "meta_arg_of_pericenter": 216.1586,
        "meta_mean_anomaly": 324.3055,
        "meta_ephemeris_type": 0,
        "meta_classification_type": "U",
        "meta_norad_cat_id": 37256,
        "meta_element_set_no": 999,
        "meta_rev_at_epoch": 5505,
        "meta_bstar": 0,
        "meta_mean_motion_dot": -1.97e-06,
        "meta_mean_motion_ddot": 0,
        "tle_line1": "1 37256U 10068A   25359.69975266 -.00000197  00000+0  00000+0 0  9998",
        "tle_line2": "2 37256  47.8622 273.9905 0048452 216.1586 324.3055  1.00282453 55053"
      },
      "geometry": {
        "type": "Point",
        "coordinates": [
          -64.8406930257347,
          21.78620787673914
        ]
      }
    },
    {
      "type": "Feature",
      "properties": {
        "norad_id": 37384,
        "name": "BEIDOU-2 IGSO-3 (C08)",
        "group": "gnss",
        "lat": -61.02292978678114,
        "lon": -65.65943201041442,
        "alt_km": 35751.66696497512,
        "timestamp": "2025-12-26T06:43:29.753210+00:00",
        "meta_object_name": "BEIDOU-2 IGSO-3 (C08)",
        "meta_object_id": "2011-013A",
        "meta_epoch": "2025-12-24T13:36:08.179776",
        "meta_mean_motion": 1.00268125,
        "meta_eccentricity": 0.00352821,
        "meta_inclination": 62.1584,
        "meta_ra_of_asc_node": 41.8043,
        "meta_arg_of_pericenter": 187.8377,
        "meta_mean_anomaly": 174.9924,
        "meta_ephemeris_type": 0,
        "meta_classification_type": "U",
        "meta_norad_cat_id": 37384,
        "meta_element_set_no": 999,
        "meta_rev_at_epoch": 5391,
        "meta_bstar": 0,
        "meta_mean_motion_dot": -1.63e-06,
        "meta_mean_motion_ddot": 0,
        "tle_line1": "1 37384U 11013A   25358.56676134 -.00000163  00000+0  00000+0 0  9991",
        "tle_line2": "2 37384  62.1584  41.8043 0035282 187.8377 174.9924  1.00268125 53913"
      },
      "geometry": {
        "type": "Point",
        "coordinates": [
          -65.65943201041442,
          -61.02292978678114
        ]
      }
    },
    {
      "type": "Feature",
      "properties": {
        "norad_id": 37605,
        "name": "GSAT-8 (GAGAN/PRN 127)",
        "group": "gnss",
        "lat": 0.36593415140306657,
        "lon": -109.0649770081509,
        "alt_km": 35750.01978677355,
        "timestamp": "2025-12-26T06:43:29.753222+00:00",
        "meta_object_name": "GSAT-8 (GAGAN/PRN 127)",
        "meta_object_id": "2011-022A",
        "meta_epoch": "2025-12-25T21:53:38.819040",
        "meta_mean_motion": 1.00271717,
        "meta_eccentricity": 0.00090354,
        "meta_inclination": 1.6818,
        "meta_ra_of_asc_node": 84.0546,
        "meta_arg_of_pericenter": 186.5818,
        "meta_mean_anomaly": 207.5084,
        "meta_ephemeris_type": 0,
        "meta_classification_type": "U",
        "meta_norad_cat_id": 37605,
        "meta_element_set_no": 999,
        "meta_rev_at_epoch": 5148,
        "meta_bstar": 0,
        "meta_mean_motion_dot": 1.06e-06,
        "meta_mean_motion_ddot": 0,
        "tle_line1": "1 37605U 11022A   25359.91225485  .00000106  00000+0  00000+0 0  9992",
        "tle_line2": "2 37605   1.6818  84.0546 0009035 186.5818 207.5084  1.00271717 51488"
      },
      "geometry": {
        "type": "Point",
        "coordinates": [
          -109.0649770081509,
          0.36593415140306657
        ]
      }
    },
    {
      "type": "Feature",
      "properties": {
        "norad_id": 37763,
        "name": "BEIDOU-2 IGSO-4 (C09)",
        "group": "gnss",
        "lat": 43.783875198596256,
        "lon": -55.82756287854865,
        "alt_km": 35968.19832645471,
        "timestamp": "2025-12-26T06:43:29.753235+00:00",
        "meta_object_name": "BEIDOU-2 IGSO-4 (C09)",
        "meta_object_id": "2011-038A",
        "meta_epoch": "2025-12-21T10:06:26.864064",
        "meta_mean_motion": 1.00280083,
        "meta_eccentricity": 0.01491557,
        "meta_inclination": 54.5854,
        "meta_ra_of_asc_node": 167.2693,
        "meta_arg_of_pericenter": 230.0944,
        "meta_mean_anomaly": 299.1265,
        "meta_ephemeris_type": 0,
        "meta_classification_type": "U",
        "meta_norad_cat_id": 37763,
        "meta_element_set_no": 999,
        "meta_rev_at_epoch": 5286,
        "meta_bstar": 0,
        "meta_mean_motion_dot": 5.9e-07,
        "meta_mean_motion_ddot": 0,
        "tle_line1": "1 37763U 11038A   25355.42114426  .00000059  00000+0  00000+0 0  9995",
        "tle_line2": "2 37763  54.5854 167.2693 0149155 230.0944 299.1265  1.00280083 52867"
      },
      "geometry": {
        "type": "Point",
        "coordinates": [
          -55.82756287854865,
          43.783875198596256
        ]
      }
    }
  ]
}